satname,norad_id,inclination_deg,eccentricity,mean_motion_rev_per_day,perigee_km,apogee_km,l1,l2
STARLINK-1556,46033,53.0554,0.0001651,15.07005385,544.2136924350461,546.499830075013,1 46033U 20055G   26059.84533292  .00119384  00000+0  77710-2 0  9995,2 46033  53.0554 166.3168 0001651 115.4661 244.6499 15.07005385307538
STARLINK-1557,46034,53.0638,6.23e-05,15.09185016,538.2580957285027,539.1199322498451,1 46034U 20055H   26059.91668981  .00004465  00000+0  29565-3 0  9997,2 46034  53.0638 165.9885 0000623  76.6876 295.8859 15.09185016  5688
STARLINK-1558,46035,53.0571,0.0001321,15.06388881,546.3307932352109,548.1604793277174,1 46035U 20055J   26059.59147090 -.00001440  00000+0 -77813-4 0  9997,2 46035  53.0571 167.4645 0001321  92.4105 267.7035 15.06388881307527
STARLINK-1560,46036,53.0546,0.0001317,15.06393025,546.3208641706888,548.1450066116704,1 46036U 20055K   26059.51037589 -.00000231  00000+0  34118-5 0  9999,2 46036  53.0546 167.8269 0001317  89.8494 270.2646 15.06393025307514
STARLINK-1567,46038,53.056,0.0001189,15.06390986,546.4157574594237,548.0626119161425,1 46038U 20055M   26059.58778429 -.00000362  00000+0 -54418-5 0  9994,2 46038  53.0560 167.4797 0001189  85.4861 274.6263 15.06390986307517
STARLINK-1569,46039,53.0569,0.0001427,15.06500187,545.9163128055852,547.8927196543182,1 46039U 20055N   26059.66140795  .00016805  00000+0  11413-2 0  9995,2 46039  53.0569 167.1445 0001427  86.5342 273.5811 15.06500187307529
STARLINK-1582,46043,53.0557,0.0001455,15.06403373,546.1935834873293,548.2088569094067,1 46043U 20055S   26059.60251822  .00000283  00000+0  37892-4 0  9992,2 46043  53.0557 167.4126 0001455  92.8724 267.2431 15.06403373307511
STARLINK-1591,46045,53.0614,0.000193,15.08770515,538.6205930547658,541.2909768697618,1 46045U 20055U   26059.91668981  .00010149  00000+0  65602-3 0  9997,2 46045  53.0614 165.9919 0001930  64.6006  66.5851 15.08770515  5842
STARLINK-1524,46047,53.1552,0.0001339,15.29363827,476.79487044210146,478.6308670369508,1 46047U 20055W   26059.91668981 -.00017342  00000+0 -58989-3 0  9993,2 46047  53.1552 154.5364 0001339  87.5435  20.9364 15.29363827  5847
STARLINK-1527,46048,53.1557,0.0001273,15.29364931,476.83682012390636,478.582318660473,1 46048U 20055X   26059.91668981 -.00018607  00000+0 -63389-3 0  9999,2 46048  53.1557 154.6626 0001273  91.8690 326.4366 15.29364931  5789
STARLINK-1540,46051,53.1573,0.0001362,15.29380638,476.72886892667157,478.5963887455673,1 46051U 20055AA  26059.91668981 -.00021867  00000+0 -74709-3 0  9993,2 46051  53.1573 154.5571 0001362  86.6579 210.3560 15.29380638  5730
STARLINK-1541,46052,53.1461,8.55e-05,15.27369241,483.0935714981988,484.26694224912353,1 46052U 20055AB  26059.91668981  .00751461  00000+0  25712-1 0  9990,2 46052  53.1461 154.5984 0000855  82.5835 272.2627 15.27369241  5849
STARLINK-1543,46053,53.1561,0.0001435,15.29361514,476.73596579558125,478.70359669179834,1 46053U 20055AC  26059.91668981 -.00022090  00000+0 -75530-3 0  9997,2 46053  53.1561 154.6312 0001435  80.7038 235.6227 15.29361514  5843
STARLINK-1548,46054,53.1554,9.4e-05,15.29337009,477.1485591830642,478.43747402618646,1 46054U 20055AD  26059.91668981  .00019057  00000+0  67143-3 0  9996,2 46054  53.1554 154.6329 0000940  85.2153 190.6356 15.29337009  5780
STARLINK-1554,46055,53.146,9.13e-05,15.27282701,483.31295302207945,484.565968183786,1 46055U 20055AE  26059.91668981  .00855647  00000+0  29426-1 0  9990,2 46055  53.1460 154.7543 0000913  90.2755 198.5072 15.27282701  5845
STARLINK-1564,46058,53.1561,9.37e-05,15.29363681,477.0709118929699,478.35569824013965,1 46058U 20055AH  26059.91668981 -.00016719  00000+0 -56821-3 0  9995,2 46058  53.1561 155.1045 0000937  98.6488 191.7603 15.29363681  5847
STARLINK-1570,46059,53.1547,0.0001127,15.29366255,476.93295910901816,478.4782660338915,1 46059U 20055AJ  26059.91668981 -.00016248  00000+0 -55178-3 0  9997,2 46059  53.1547 154.6426 0001127  84.1790  45.9855 15.29366255  5846
STARLINK-1572,46060,53.1492,0.0001262,15.28213636,480.286775180919,482.01805982989754,1 46060U 20055AK  26059.91668981  .00993669  00000+0  32835-1 0  9991,2 46060  53.1492 154.7882 0001262  73.3705 357.6504 15.28213636  5847
STARLINK-1573,46061,53.1599,0.00012,15.3015428,474.529165867154,476.1740031274321,1 46061U 20055AL  26059.91668981 -.00005196  00000+0 -16367-3 0  9997,2 46061  53.1599 154.6123 0001200  80.4331 127.0923 15.30154280  5845
STARLINK-1577,46063,53.1554,0.0001113,15.29380794,476.89911218549423,478.42521307909647,1 46063U 20055AN  26059.91668981 -.00017203  00000+0 -58476-3 0  9998,2 46063  53.1554 154.5609 0001113  87.8453 346.4737 15.29380794  5833
STARLINK-1583,46064,53.1574,0.0001221,15.29365658,476.8702981254801,478.5444953271608,1 46064U 20055AP  26059.91668981 -.00021699  00000+0 -74158-3 0  9998,2 46064  53.1574 154.5782 0001221  84.7706 160.8342 15.29365658  5736
STARLINK-1525,46066,53.0541,0.000161,15.06402726,546.0882233807852,548.3181829262012,1 46066U 20055AR  26059.54999411 -.00001554  00000+0 -85420-4 0  9997,2 46066  53.0541 137.6491 0001610  93.4343 266.6831 15.06402726307923
STARLINK-1536,46070,53.0562,0.0001409,15.06391306,546.2624185580316,548.2139892904988,1 46070U 20055AV  26059.52788557 -.00001278  00000+0 -66903-4 0  9995,2 46070  53.0562 137.7496 0001409  94.2659 265.8491 15.06391306307937
STARLINK-1542,46073,53.0558,0.0001298,15.06399111,546.3153720000973,548.1131931930595,1 46073U 20055AY  26059.58685458 -.00001206  00000+0 -62065-4 0  9996,2 46073  53.0558 137.4832 0001298  88.9551 271.1587 15.06399111307931
STARLINK-1549,46074,53.055,0.0001275,15.06395074,546.3436715938742,548.1096393260159,1 46074U 20055AZ  26059.50576596 -.00000449  00000+0 -11288-4 0  9990,2 46074  53.0550 137.8473 0001275  89.2687 270.8448 15.06395074307912
STARLINK-1551,46075,53.0558,0.0001439,15.06390657,546.243631257561,548.2367548137172,1 46075U 20055BA  26059.53157460 -.00000289  00000+0 -47736-6 0  9990,2 46075  53.0558 137.7297 0001439  91.1688 268.9466 15.06390657307920
STARLINK-1552,46076,53.055,0.0001733,15.06395826,546.0241855545764,548.4245157987207,1 46076U 20055BB  26059.49102375  .00000225  00000+0  34007-4 0  9994,2 46076  53.0550 137.9125 0001733  98.8792 261.2393 15.06395826307908
STARLINK-1559,46077,53.0275,0.0003857,15.28674957,477.1272624383537,482.4174537171757,1 46077U 20055BC  26059.54021582  .00049770  00000+0  17615-2 0  9993,2 46077  53.0275 116.5021 0003857   3.8995 356.2033 15.28674957308187
